{
  "type": "FeatureCollection",
  "features": [
    {
      "type": "Feature",
      "properties": {
        "norad_id": 24946,
        "name": "IRIDIUM 33",
        "group": "iridium-33-debris",
        "lat": 42.49123067767794,
        "lon": 68.36041914633613,
        "alt_km": 775.2770550992827,
        "timestamp": "2025-12-20T07:33:51.198038+00:00",
        "meta_object_name": "IRIDIUM 33",
        "meta_object_id": "1997-051C",
        "meta_epoch": "2025-12-19T11:17:03.474240",
        "meta_mean_motion": 14.35041894,
        "meta_eccentricity": 0.0007833,
        "meta_inclination": 86.3867,
        "meta_ra_of_asc_node": 65.3967,
        "meta_arg_of_pericenter": 177.5382,
        "meta_mean_anomaly": 182.5855,
        "meta_ephemeris_type": 0,
        "meta_classification_type": "U",
        "meta_norad_cat_id": 24946,
        "meta_element_set_no": 999,
        "meta_rev_at_epoch": 47931,
        "meta_bstar": 8.767e-05,
        "meta_mean_motion_dot": 2.7e-06,
        "meta_mean_motion_ddot": 0,
        "tle_line1": "1 24946U 97051C   25353.47017910  .00000270  00000+0  87670-4 0  9994",
        "tle_line2": "2 24946  86.3867  65.3967 0007833 177.5382 182.5855 14.35041894479312"
      },
      "geometry": {
        "type": "Point",
        "coordinates": [
          68.36041914633613,
          42.49123067767794
        ]
      }
    },
    {
      "type": "Feature",
      "properties": {
        "norad_id": 33773,
        "name": "IRIDIUM 33 DEB",
        "group": "iridium-33-debris",
        "lat": -43.8608670176251,
        "lon": -119.15245495200223,
        "alt_km": 756.0194809521354,
        "timestamp": "2025-12-20T07:33:51.198063+00:00",
        "meta_object_name": "IRIDIUM 33 DEB",
        "meta_object_id": "1997-051L",
        "meta_epoch": "2025-12-19T22:12:41.387328",
        "meta_mean_motion": 14.43271058,
        "meta_eccentricity": 0.00130701,
        "meta_inclination": 86.4003,
        "meta_ra_of_asc_node": 57.5444,
        "meta_arg_of_pericenter": 125.5672,
        "meta_mean_anomaly": 234.6749,
        "meta_ephemeris_type": 0,
        "meta_classification_type": "U",
        "meta_norad_cat_id": 33773,
        "meta_element_set_no": 999,
        "meta_rev_at_epoch": 88451,
        "meta_bstar": 0.00020534894,
        "meta_mean_motion_dot": 7.12e-06,
        "meta_mean_motion_ddot": 0,
        "tle_line1": "1 33773U 97051L   25353.92547902  .00000712  00000+0  20535-3 0  9998",
        "tle_line2": "2 33773  86.4003  57.5444 0013070 125.5672 234.6749 14.43271058884510"
      },
      "geometry": {
        "type": "Point",
        "coordinates": [
          -119.15245495200223,
          -43.8608670176251
        ]
      }
    },
    {
      "type": "Feature",
      "properties": {
        "norad_id": 33775,
        "name": "IRIDIUM 33 DEB",
        "group": "iridium-33-debris",
        "lat": -78.13885183551176,
        "lon": -116.05182049115079,
        "alt_km": 767.4427005011812,
        "timestamp": "2025-12-20T07:33:51.198077+00:00",
        "meta_object_name": "IRIDIUM 33 DEB",
        "meta_object_id": "1997-051N",
        "meta_epoch": "2025-12-19T22:35:30.156000",
        "meta_mean_motion": 14.41482661,
        "meta_eccentricity": 0.00149848,
        "meta_inclination": 86.3629,
        "meta_ra_of_asc_node": 46.4789,
        "meta_arg_of_pericenter": 133.0121,
        "meta_mean_anomaly": 346.7036,
        "meta_ephemeris_type": 0,
        "meta_classification_type": "U",
        "meta_norad_cat_id": 33775,
        "meta_element_set_no": 999,
        "meta_rev_at_epoch": 88244,
        "meta_bstar": 0.00022037788,
        "meta_mean_motion_dot": 7.36e-06,
        "meta_mean_motion_ddot": 0,
        "tle_line1": "1 33775U 97051N   25353.94132125  .00000736  00000+0  22038-3 0  9995",
        "tle_line2": "2 33775  86.3629  46.4789 0014984 133.0121 346.7036 14.41482661882448"
      },
      "geometry": {
        "type": "Point",
        "coordinates": [
          -116.05182049115079,
          -78.13885183551176
        ]
      }
    },
    {
      "type": "Feature",
      "properties": {
        "norad_id": 33776,
        "name": "IRIDIUM 33 DEB",
        "group": "iridium-33-debris",
        "lat": 39.806741602185426,
        "lon": 80.59922539382033,
        "alt_km": 767.6288348567105,
        "timestamp": "2025-12-20T07:33:51.198089+00:00",
        "meta_object_name": "IRIDIUM 33 DEB",
        "meta_object_id": "1997-051P",
        "meta_epoch": "2025-12-19T11:23:30.764832",
        "meta_mean_motion": 14.38246315,
        "meta_eccentricity": 0.0015133,
        "meta_inclination": 86.4035,
        "meta_ra_of_asc_node": 77.9477,
        "meta_arg_of_pericenter": 168.6417,
        "meta_mean_anomaly": 202.3256,
        "meta_ephemeris_type": 0,
        "meta_classification_type": "U",
        "meta_norad_cat_id": 33776,
        "meta_element_set_no": 999,
        "meta_rev_at_epoch": 88179,
        "meta_bstar": 0.00020186,
        "meta_mean_motion_dot": 6.34e-06,
        "meta_mean_motion_ddot": 0,
        "tle_line1": "1 33776U 97051P   25353.47466163  .00000634  00000+0  20186-3 0  9995",
        "tle_line2": "2 33776  86.4035  77.9477 0015133 168.6417 202.3256 14.38246315881791"
      },
      "geometry": {
        "type": "Point",
        "coordinates": [
          80.59922539382033,
          39.806741602185426
        ]
      }
    },
    {
      "type": "Feature",
      "properties": {
        "norad_id": 33777,
        "name": "IRIDIUM 33 DEB",
        "group": "iridium-33-debris",
        "lat": -58.17112425379126,
        "lon": 26.051000130506054,
        "alt_km": 714.0637315684826,
        "timestamp": "2025-12-20T07:33:51.198101+00:00",
        "meta_object_name": "IRIDIUM 33 DEB",
        "meta_object_id": "1997-051Q",
        "meta_epoch": "2025-12-19T03:47:07.455552",
        "meta_mean_motion": 14.5565724,
        "meta_eccentricity": 0.00056471,
        "meta_inclination": 86.3778,
        "meta_ra_of_asc_node": 32.4117,
        "meta_arg_of_pericenter": 220.5643,
        "meta_mean_anomaly": 139.5144,
        "meta_ephemeris_type": 0,
        "meta_classification_type": "U",
        "meta_norad_cat_id": 33777,
        "meta_element_set_no": 999,
        "meta_rev_at_epoch": 88627,
        "meta_bstar": 0.00061273741,
        "meta_mean_motion_dot": 2.696e-05,
        "meta_mean_motion_ddot": 0,
        "tle_line1": "1 33777U 97051Q   25353.15772518  .00002696  00000+0  61274-3 0  9998",
        "tle_line2": "2 33777  86.3778  32.4117 0005647 220.5643 139.5144 14.55657240886277"
      },
      "geometry": {
        "type": "Point",
        "coordinates": [
          26.051000130506054,
          -58.17112425379126
        ]
      }
    },
    {
      "type": "Feature",
      "properties": {
        "norad_id": 33850,
        "name": "IRIDIUM 33 DEB",
        "group": "iridium-33-debris",
        "lat": -77.52320168868481,
        "lon": -136.26891253271216,
        "alt_km": 763.3651907141248,
        "timestamp": "2025-12-20T07:33:51.198113+00:00",
        "meta_object_name": "IRIDIUM 33 DEB",
        "meta_object_id": "1997-051T",
        "meta_epoch": "2025-12-19T12:36:52.017120",
        "meta_mean_motion": 14.42160787,
        "meta_eccentricity": 0.001286,
        "meta_inclination": 86.3412,
        "meta_ra_of_asc_node": 27.2617,
        "meta_arg_of_pericenter": 140.6772,
        "meta_mean_anomaly": 340.5456,
        "meta_ephemeris_type": 0,
        "meta_classification_type": "U",
        "meta_norad_cat_id": 33850,
        "meta_element_set_no": 999,
        "meta_rev_at_epoch": 88250,
        "meta_bstar": 0.00026229,
        "meta_mean_motion_dot": 8.83e-06,
        "meta_mean_motion_ddot": 0,
        "tle_line1": "1 33850U 97051T   25353.52560205  .00000883  00000+0  26229-3 0  9996",
        "tle_line2": "2 33850  86.3412  27.2617 0012860 140.6772 340.5456 14.42160787882504"
      },
      "geometry": {
        "type": "Point",
        "coordinates": [
          -136.26891253271216,
          -77.52320168868481
        ]
      }
    },
    {
      "type": "Feature",
      "properties": {
        "norad_id": 33853,
        "name": "IRIDIUM 33 DEB",
        "group": "iridium-33-debris",
        "lat": -7.221659435957597,
        "lon": 166.99717605607097,
        "alt_km": 763.9498913401649,
        "timestamp": "2025-12-20T07:33:51.198125+00:00",
        "meta_object_name": "IRIDIUM 33 DEB",
        "meta_object_id": "1997-051W",
        "meta_epoch": "2025-12-19T17:47:37.724640",
        "meta_mean_motion": 13.99098623,
        "meta_eccentricity": 0.02072108,
        "meta_inclination": 85.9997,
        "meta_ra_of_asc_node": 346.7406,
        "meta_arg_of_pericenter": 214.1992,
        "meta_mean_anomaly": 325.7563,
        "meta_ephemeris_type": 0,
        "meta_classification_type": "U",
        "meta_norad_cat_id": 33853,
        "meta_element_set_no": 999,
        "meta_rev_at_epoch": 85443,
        "meta_bstar": 0.0011335371,
        "meta_mean_motion_dot": 1.989e-05,
        "meta_mean_motion_ddot": 0,
        "tle_line1": "1 33853U 97051W   25353.74140885  .00001989  00000+0  11335-2 0  9990",
        "tle_line2": "2 33853  85.9997 346.7406 0207210 214.1992 325.7563 13.99098623854436"
      },
      "geometry": {
        "type": "Point",
        "coordinates": [
          166.99717605607097,
          -7.221659435957597
        ]
      }
    }
  ]
}